HIMAWARI-8              
1 40267U 14060A   24285.55467350 -.00000273  00000+0  00000+0 0  9997
2 40267   0.0254 156.0152 0000651  71.6909 133.3123  1.00272428 36715
